{
  "type": "FeatureCollection",
  "features": [
    {
      "type": "Feature",
      "properties": {
        "norad_id": 66821,
        "name": "STARLINK-35966",
        "group": "last-30-days",
        "lat": -3.4441003991308645,
        "lon": 160.98806758957895,
        "alt_km": 411.884538526936,
        "timestamp": "2025-12-25T22:42:15.709295+00:00",
        "meta_object_name": "STARLINK-35966",
        "meta_object_id": "2025-280A",
        "meta_epoch": "2025-12-25T16:32:05.660160",
        "meta_mean_motion": 15.52529103,
        "meta_eccentricity": 0.0003097,
        "meta_inclination": 70.0006,
        "meta_ra_of_asc_node": 162.9479,
        "meta_arg_of_pericenter": 273.0412,
        "meta_mean_anomaly": 87.042,
        "meta_ephemeris_type": 0,
        "meta_classification_type": "U",
        "meta_norad_cat_id": 66821,
        "meta_element_set_no": 999,
        "meta_rev_at_epoch": 494,
        "meta_bstar": 0.0016615,
        "meta_mean_motion_dot": 0.00103423,
        "meta_mean_motion_ddot": 0,
        "tle_line1": "1 66821U 25280A   25359.68895440  .00103423  00000+0  16615-2 0  9991",
        "tle_line2": "2 66821  70.0006 162.9479 0003097 273.0412  87.0420 15.52529103  4945"
      },
      "geometry": {
        "type": "Point",
        "coordinates": [
          160.98806758957895,
          -3.4441003991308645
        ]
      }
    },
    {
      "type": "Feature",
      "properties": {
        "norad_id": 66822,
        "name": "STARLINK-35958",
        "group": "last-30-days",
        "lat": -1.621874991250592,
        "lon": 161.6516585446771,
        "alt_km": 411.84720547556753,
        "timestamp": "2025-12-25T22:42:15.709305+00:00",
        "meta_object_name": "STARLINK-35958",
        "meta_object_id": "2025-280B",
        "meta_epoch": "2025-12-25T16:31:35.223168",
        "meta_mean_motion": 15.52506297,
        "meta_eccentricity": 0.0003155,
        "meta_inclination": 70.0004,
        "meta_ra_of_asc_node": 162.9473,
        "meta_arg_of_pericenter": 272.8844,
        "meta_mean_anomaly": 87.1982,
        "meta_ephemeris_type": 0,
        "meta_classification_type": "U",
        "meta_norad_cat_id": 66822,
        "meta_element_set_no": 999,
        "meta_rev_at_epoch": 494,
        "meta_bstar": 0.0011122,
        "meta_mean_motion_dot": 0.00068817,
        "meta_mean_motion_ddot": 0,
        "tle_line1": "1 66822U 25280B   25359.68860212  .00068817  00000+0  11122-2 0  9996",
        "tle_line2": "2 66822  70.0004 162.9473 0003155 272.8844  87.1982 15.52506297  4942"
      },
      "geometry": {
        "type": "Point",
        "coordinates": [
          161.6516585446771,
          -1.621874991250592
        ]
      }
    },
    {
      "type": "Feature",
      "properties": {
        "norad_id": 66823,
        "name": "STARLINK-35957",
        "group": "last-30-days",
        "lat": 0.03503615589125724,
        "lon": 162.2531288467351,
        "alt_km": 411.6949422355683,
        "timestamp": "2025-12-25T22:42:15.709316+00:00",
        "meta_object_name": "STARLINK-35957",
        "meta_object_id": "2025-280C",
        "meta_epoch": "2025-12-25T16:31:08.434848",
        "meta_mean_motion": 15.52522595,
        "meta_eccentricity": 0.0002981,
        "meta_inclination": 70.0004,
        "meta_ra_of_asc_node": 162.946,
        "meta_arg_of_pericenter": 269.0511,
        "meta_mean_anomaly": 91.0335,
        "meta_ephemeris_type": 0,
        "meta_classification_type": "U",
        "meta_norad_cat_id": 66823,
        "meta_element_set_no": 999,
        "meta_rev_at_epoch": 494,
        "meta_bstar": 0.00216,
        "meta_mean_motion_dot": 0.0013501,
        "meta_mean_motion_ddot": 0,
        "tle_line1": "1 66823U 25280C   25359.68829207  .00135010  00000+0  21600-2 0  9998",
        "tle_line2": "2 66823  70.0004 162.9460 0002981 269.0511  91.0335 15.52522595  4949"
      },
      "geometry": {
        "type": "Point",
        "coordinates": [
          162.2531288467351,
          0.03503615589125724
        ]
      }
    },
    {
      "type": "Feature",
      "properties": {
        "norad_id": 66824,
        "name": "STARLINK-35896",
        "group": "last-30-days",
        "lat": 2.0709226442664255,
        "lon": 162.992235127256,
        "alt_km": 411.67839765042936,
        "timestamp": "2025-12-25T22:42:15.709325+00:00",
        "meta_object_name": "STARLINK-35896",
        "meta_object_id": "2025-280D",
        "meta_epoch": "2025-12-25T18:03:21.695616",
        "meta_mean_motion": 15.5256324,
        "meta_eccentricity": 0.0003241,
        "meta_inclination": 70.0004,
        "meta_ra_of_asc_node": 162.7679,
        "meta_arg_of_pericenter": 266.4933,
        "meta_mean_anomaly": 93.5884,
        "meta_ephemeris_type": 0,
        "meta_classification_type": "U",
        "meta_norad_cat_id": 66824,
        "meta_element_set_no": 999,
        "meta_rev_at_epoch": 495,
        "meta_bstar": 0.00013522,
        "meta_mean_motion_dot": 8.173e-05,
        "meta_mean_motion_ddot": 0,
        "tle_line1": "1 66824U 25280D   25359.75233444  .00008173  00000+0  13522-3 0  9993",
        "tle_line2": "2 66824  70.0004 162.7679 0003241 266.4933  93.5884 15.52563240  4958"
      },
      "geometry": {
        "type": "Point",
        "coordinates": [
          162.992235127256,
          2.0709226442664255
        ]
      }
    },
    {
      "type": "Feature",
      "properties": {
        "norad_id": 66825,
        "name": "STARLINK-35476",
        "group": "last-30-days",
        "lat": 3.8775108093092974,
        "lon": 163.6496096372749,
        "alt_km": 411.2038899953168,
        "timestamp": "2025-12-25T22:42:15.709339+00:00",
        "meta_object_name": "STARLINK-35476",
        "meta_object_id": "2025-280E",
        "meta_epoch": "2025-12-25T16:30:06.020352",
        "meta_mean_motion": 15.52598966,
        "meta_eccentricity": 0.0003307,
        "meta_inclination": 70.0005,
        "meta_ra_of_asc_node": 162.9427,
        "meta_arg_of_pericenter": 269.9293,
        "meta_mean_anomaly": 90.1515,
        "meta_ephemeris_type": 0,
        "meta_classification_type": "U",
        "meta_norad_cat_id": 66825,
        "meta_element_set_no": 999,
        "meta_rev_at_epoch": 494,
        "meta_bstar": 0.00090419,
        "meta_mean_motion_dot": 0.00056013,
        "meta_mean_motion_ddot": 0,
        "tle_line1": "1 66825U 25280E   25359.68756968  .00056013  00000+0  90419-3 0  9993",
        "tle_line2": "2 66825  70.0005 162.9427 0003307 269.9293  90.1515 15.52598966  4949"
      },
      "geometry": {
        "type": "Point",
        "coordinates": [
          163.6496096372749,
          3.8775108093092974
        ]
      }
    },
    {
      "type": "Feature",
      "properties": {
        "norad_id": 66826,
        "name": "STARLINK-35898",
        "group": "last-30-days",
        "lat": 5.556477622978144,
        "lon": 164.26326965033115,
        "alt_km": 411.11736631241365,
        "timestamp": "2025-12-25T22:42:15.709349+00:00",
        "meta_object_name": "STARLINK-35898",
        "meta_object_id": "2025-280F",
        "meta_epoch": "2025-12-25T16:29:37.675104",
        "meta_mean_motion": 15.52540878,
        "meta_eccentricity": 0.0003191,
        "meta_inclination": 70.0005,
        "meta_ra_of_asc_node": 162.9412,
        "meta_arg_of_pericenter": 270.836,
        "meta_mean_anomaly": 89.2462,
        "meta_ephemeris_type": 0,
        "meta_classification_type": "U",
        "meta_norad_cat_id": 66826,
        "meta_element_set_no": 999,
        "meta_rev_at_epoch": 494,
        "meta_bstar": 0.001432,
        "meta_mean_motion_dot": 0.00088991,
        "meta_mean_motion_ddot": 0,
        "tle_line1": "1 66826U 25280F   25359.68724161  .00088991  00000+0  14320-2 0  9990",
        "tle_line2": "2 66826  70.0005 162.9412 0003191 270.8360  89.2462 15.52540878  4940"
      },
      "geometry": {
        "type": "Point",
        "coordinates": [
          164.26326965033115,
          5.556477622978144
        ]
      }
    },
    {
      "type": "Feature",
      "properties": {
        "norad_id": 66827,
        "name": "STARLINK-35959",
        "group": "last-30-days",
        "lat": 7.366221186671493,
        "lon": 164.92905348565702,
        "alt_km": 411.0317805932091,
        "timestamp": "2025-12-25T22:42:15.709365+00:00",
        "meta_object_name": "STARLINK-35959",
        "meta_object_id": "2025-280G",
        "meta_epoch": "2025-12-25T16:29:07.963008",
        "meta_mean_motion": 15.52545234,
        "meta_eccentricity": 0.0003309,
        "meta_inclination": 70.0005,
        "meta_ra_of_asc_node": 162.9397,
        "meta_arg_of_pericenter": 267.9133,
        "meta_mean_anomaly": 92.1674,
        "meta_ephemeris_type": 0,
        "meta_classification_type": "U",
        "meta_norad_cat_id": 66827,
        "meta_element_set_no": 999,
        "meta_rev_at_epoch": 494,
        "meta_bstar": 0.0015539,
        "meta_mean_motion_dot": 0.00096693,
        "meta_mean_motion_ddot": 0,
        "tle_line1": "1 66827U 25280G   25359.68689772  .00096693  00000+0  15539-2 0  9990",
        "tle_line2": "2 66827  70.0005 162.9397 0003309 267.9133  92.1674 15.52545234  4948"
      },
      "geometry": {
        "type": "Point",
        "coordinates": [
          164.92905348565702,
          7.366221186671493
        ]
      }
    }
  ]
}